[
    {
        "CCSDS_OMM_VERS": "3.0",
        "COMMENT": "GENERATED VIA SPACE-TRACK.ORG API",
        "CREATION_DATE": "2025-03-02T09:28:08",
        "ORIGINATOR": "18 SPCS",
        "OBJECT_NAME": "GALILEO 14 (26B)",
        "OBJECT_ID": "2016-030A",
        "CENTER_NAME": "EARTH",
        "REF_FRAME": "TEME",
        "TIME_SYSTEM": "UTC",
        "MEAN_ELEMENT_THEORY": "SGP4",
        "EPOCH": "2025-03-01T00:13:13.687680",
        "MEAN_MOTION": "1.70473594",
        "ECCENTRICITY": "0.00035850",
        "INCLINATION": "55.2585",
        "RA_OF_ASC_NODE": "234.7065",
        "ARG_OF_PERICENTER": "25.6327",
        "MEAN_ANOMALY": "334.3490",
        "EPHEMERIS_TYPE": "0",
        "CLASSIFICATION_TYPE": "U",
        "NORAD_CAT_ID": "41549",
        "ELEMENT_SET_NO": "999",
        "REV_AT_EPOCH": "5460",
        "BSTAR": "0.00000000000000",
        "MEAN_MOTION_DOT": "0.00000051",
        "MEAN_MOTION_DDOT": "0.0000000000000",
        "SEMIMAJOR_AXIS": "29600.367",
        "PERIOD": "844.706",
        "APOAPSIS": "23232.844",
        "PERIAPSIS": "23211.620",
        "OBJECT_TYPE": "PAYLOAD",
        "RCS_SIZE": "LARGE",
        "COUNTRY_CODE": "ESA",
        "LAUNCH_DATE": "2016-05-24",
        "SITE": "FRGUI",
        "DECAY_DATE": null,
        "FILE": "4656805",
        "GP_ID": "282047982",
        "TLE_LINE0": "0 GALILEO 14 (26B)",
        "TLE_LINE1": "1 41549U 16030A   25060.00918620  .00000051  00000-0  00000-0 0  9998",
        "TLE_LINE2": "2 41549  55.2585 234.7065 0003585  25.6327 334.3490  1.70473594 54609"
    }
]